[{"OBJECT_NAME":"TRITON-1","OBJECT_ID":"2013-066M","EPOCH":"2026-03-10T00:12:50.372640","MEAN_MOTION":14.81201223,"ECCENTRICITY":0.0090141,"INCLINATION":97.8288,"RA_OF_ASC_NODE":341.0923,"ARG_OF_PERICENTER":196.684,"MEAN_ANOMALY":163.1403,"EPHEMERIS_TYPE":0,"CLASSIFICATION_TYPE":"U","NORAD_CAT_ID":39427,"ELEMENT_SET_NO":999,"REV_AT_EPOCH":65940,"BSTAR":0.00037393921,"MEAN_MOTION_DOT":3.065e-5,"MEAN_MOTION_DDOT":0},{"OBJECT_NAME":"FENGYUN 1C DEB","OBJECT_ID":"1999-025EEA","EPOCH":"2026-03-08T14:09:58.603104","MEAN_MOTION":14.79058991,"ECCENTRICITY":0.00515298,"INCLINATION":98.5873,"RA_OF_ASC_NODE":197.894,"ARG_OF_PERICENTER":121.6387,"MEAN_ANOMALY":238.9865,"EPHEMERIS_TYPE":0,"CLASSIFICATION_TYPE":"U","NORAD_CAT_ID":37042,"ELEMENT_SET_NO":999,"REV_AT_EPOCH":74065,"BSTAR":0.004504859,"MEAN_MOTION_DOT":0.00034175,"MEAN_MOTION_DDOT":0}]
